[{"OBJECT_NAME":"STARLINK-5170","OBJECT_ID":"2022-136M","EPOCH":"2026-03-09T22:47:38.098464","MEAN_MOTION":15.08834497,"ECCENTRICITY":0.00011991,"INCLINATION":53.2195,"RA_OF_ASC_NODE":342.9211,"ARG_OF_PERICENTER":105.0717,"MEAN_ANOMALY":255.0408,"EPHEMERIS_TYPE":0,"CLASSIFICATION_TYPE":"U","NORAD_CAT_ID":54062,"ELEMENT_SET_NO":999,"REV_AT_EPOCH":18688,"BSTAR":9.6227376e-5,"MEAN_MOTION_DOT":1.244e-5,"MEAN_MOTION_DDOT":0},{"OBJECT_NAME":"LEMUR-2-STELLA","OBJECT_ID":"2024-149BT","EPOCH":"2026-03-09T17:26:15.951264","MEAN_MOTION":15.09464064,"ECCENTRICITY":0.0001299,"INCLINATION":97.6764,"RA_OF_ASC_NODE":150.9122,"ARG_OF_PERICENTER":95.1117,"MEAN_ANOMALY":265.026,"EPHEMERIS_TYPE":0,"CLASSIFICATION_TYPE":"U","NORAD_CAT_ID":60533,"ELEMENT_SET_NO":999,"REV_AT_EPOCH":8548,"BSTAR":0.00085776432,"MEAN_MOTION_DOT":0.00013685,"MEAN_MOTION_DDOT":0}]
